[{"OBJECT_NAME":"IRIDIUM 124","OBJECT_ID":"2017-039H","EPOCH":"2026-03-09T23:29:37.068864","MEAN_MOTION":14.432748,"ECCENTRICITY":0.0002084,"INCLINATION":86.4531,"RA_OF_ASC_NODE":331.8553,"ARG_OF_PERICENTER":84.6213,"MEAN_ANOMALY":275.5226,"EPHEMERIS_TYPE":0,"CLASSIFICATION_TYPE":"U","NORAD_CAT_ID":42810,"ELEMENT_SET_NO":999,"REV_AT_EPOCH":46080,"BSTAR":0.00013794234,"MEAN_MOTION_DOT":4.84e-6,"MEAN_MOTION_DDOT":0},{"OBJECT_NAME":"SL-8 DEB","OBJECT_ID":"1971-035E","EPOCH":"2026-03-02T13:08:28.493664","MEAN_MOTION":14.38206591,"ECCENTRICITY":0.0031244,"INCLINATION":74.0467,"RA_OF_ASC_NODE":145.2146,"ARG_OF_PERICENTER":290.0247,"MEAN_ANOMALY":69.7543,"EPHEMERIS_TYPE":0,"CLASSIFICATION_TYPE":"U","NORAD_CAT_ID":38665,"ELEMENT_SET_NO":999,"REV_AT_EPOCH":66257,"BSTAR":9.2903e-5,"MEAN_MOTION_DOT":2.57e-6,"MEAN_MOTION_DDOT":0}]
